{"type": "FeatureCollection", "features": [ {"type": "Feature", "properties": {"norad_id": 35287, "name": "COSMOS 2251 DEB", "group": "cosmos-2251-debris", "lat": -61.48486038000851, "lon": 128.55049098693362, "alt_km": 784.926315999488, "timestamp": "2025-12-12T09:49:09.128051+00:00", "meta": {"OBJECT_NAME": "COSMOS 2251 DEB", "OBJECT_ID": "1993-036AJR", "EPOCH": "2025-12-11T13:25:38.612352", "MEAN_MOTION": 14.36374891, "ECCENTRICITY": 0.00175152, "INCLINATION": 74.0308, "RA_OF_ASC_NODE": 278.3043, "ARG_OF_PERICENTER": 15.3191, "MEAN_ANOMALY": 159.0765, "EPHEMERIS_TYPE": 0, "CLASSIFICATION_TYPE": "U", "NORAD_CAT_ID": 35287, "ELEMENT_SET_NO": 999, "REV_AT_EPOCH": 86875, "BSTAR": 0.00023838047, "MEAN_MOTION_DOT": 6.73e-06, "MEAN_MOTION_DDOT": 0}, "tle": {"line1": "1 35287U 93036AJR 25345.55947468  .00000673  00000+0  23838-3 0  9995", "line2": "2 35287  74.0308 278.3043 0017515  15.3191 159.0765 14.36374891868758"}}, "geometry": {"type": "Point", "coordinates": [128.55049098693362, -61.48486038000851]}}, {"type": "Feature", "properties": {"norad_id": 35288, "name": "COSMOS 2251 DEB", "group": "cosmos-2251-debris", "lat": 2.242619417139252, "lon": 16.46103102052366, "alt_km": 688.9030508999649, "timestamp": "2025-12-12T09:49:09.128061+00:00", "meta": {"OBJECT_NAME": "COSMOS 2251 DEB", "OBJECT_ID": "1993-036AJS", "EPOCH": "2025-12-10T08:39:21.633984", "MEAN_MOTION": 14.65413781, "ECCENTRICITY": 0.00395397, "INCLINATION": 73.951, "RA_OF_ASC_NODE": 19.7768, "ARG_OF_PERICENTER": 253.6203, "MEAN_ANOMALY": 106.0616, "EPHEMERIS_TYPE": 0, "CLASSIFICATION_TYPE": "U", "NORAD_CAT_ID": 35288, "ELEMENT_SET_NO": 999, "REV_AT_EPOCH": 87843, "BSTAR": 0.0015164998, "MEAN_MOTION_DOT": 8.275e-05, "MEAN_MOTION_DDOT": 0}, "tle": {"line1": "1 35288U 93036AJS 25344.36066706  .00008275  00000+0  15165-2 0  9990", "line2": "2 35288  73.9510  19.7768 0039539 253.6203 106.0616 14.65413781878431"}}, "geometry": {"type": "Point", "coordinates": [16.46103102052366, 2.242619417139252]}}, {"type": "Feature", "properties": {"norad_id": 35290, "name": "COSMOS 2251 DEB", "group": "cosmos-2251-debris", "lat": -72.73049743113313, "lon": -52.59059259907027, "alt_km": 634.3935019145001, "timestamp": "2025-12-12T09:49:09.128071+00:00", "meta": {"OBJECT_NAME": "COSMOS 2251 DEB", "OBJECT_ID": "1993-036AJU", "EPOCH": "2025-12-11T13:10:12.161568", "MEAN_MOTION": 14.80329109, "ECCENTRICITY": 0.00023731, "INCLINATION": 74.0048, "RA_OF_ASC_NODE": 61.7847, "ARG_OF_PERICENTER": 200.4054, "MEAN_ANOMALY": 159.7028, "EPHEMERIS_TYPE": 0, "CLASSIFICATION_TYPE": "U", "NORAD_CAT_ID": 35290, "ELEMENT_SET_NO": 999, "REV_AT_EPOCH": 87940, "BSTAR": 0.0031349739, "MEAN_MOTION_DOT": 0.00023959, "MEAN_MOTION_DDOT": 0}, "tle": {"line1": "1 35290U 93036AJU 25345.54875187  .00023959  00000+0  31350-2 0  9995", "line2": "2 35290  74.0048  61.7847 0002373 200.4054 159.7028 14.80329109879404"}}, "geometry": {"type": "Point", "coordinates": [-52.59059259907027, -72.73049743113313]}}, {"type": "Feature", "properties": {"norad_id": 35432, "name": "COSMOS 2251 DEB", "group": "cosmos-2251-debris", "lat": 72.80412749280777, "lon": 84.03828279186914, "alt_km": 491.56397311642286, "timestamp": "2025-12-12T09:49:09.128081+00:00", "meta": {"OBJECT_NAME": "COSMOS 2251 DEB", "OBJECT_ID": "1993-036AKA", "EPOCH": "2025-12-12T01:34:13.253952", "MEAN_MOTION": 15.22745879, "ECCENTRICITY": 0.0012212, "INCLINATION": 74.023, "RA_OF_ASC_NODE": 16.9721, "ARG_OF_PERICENTER": 343.1165, "MEAN_ANOMALY": 16.9626, "EPHEMERIS_TYPE": 0, "CLASSIFICATION_TYPE": "U", "NORAD_CAT_ID": 35432, "ELEMENT_SET_NO": 999, "REV_AT_EPOCH": 87493, "BSTAR": 0.0062046, "MEAN_MOTION_DOT": 0.00148065, "MEAN_MOTION_DDOT": 0}, "tle": {"line1": "1 35432U 93036AKA 25346.06543118  .00148065  00000+0  62046-2 0  9999", "line2": "2 35432  74.0230  16.9721 0012212 343.1165  16.9626 15.22745879874933"}}, "geometry": {"type": "Point", "coordinates": [84.03828279186914, 72.80412749280777]}}, {"type": "Feature", "properties": {"norad_id": 35433, "name": "COSMOS 2251 DEB", "group": "cosmos-2251-debris", "lat": 5.588436422361474, "lon": -19.342241513260756, "alt_km": 761.7227782089831, "timestamp": "2025-12-12T09:49:09.128092+00:00", "meta": {"OBJECT_NAME": "COSMOS 2251 DEB", "OBJECT_ID": "1993-036AKB", "EPOCH": "2025-12-10T18:27:52.031808", "MEAN_MOTION": 14.34742553, "ECCENTRICITY": 0.00254013, "INCLINATION": 74.0339, "RA_OF_ASC_NODE": 342.0559, "ARG_OF_PERICENTER": 37.4572, "MEAN_ANOMALY": 142.4072, "EPHEMERIS_TYPE": 0, "CLASSIFICATION_TYPE": "U", "NORAD_CAT_ID": 35433, "ELEMENT_SET_NO": 999, "REV_AT_EPOCH": 86552, "BSTAR": 0.00041847558, "MEAN_MOTION_DOT": 1.164e-05, "MEAN_MOTION_DDOT": 0}, "tle": {"line1": "1 35433U 93036AKB 25344.76935222  .00001164  00000+0  41848-3 0  9992", "line2": "2 35433  74.0339 342.0559 0025401  37.4572 142.4072 14.34742553865528"}}, "geometry": {"type": "Point", "coordinates": [-19.342241513260756, 5.588436422361474]}}, {"type": "Feature", "properties": {"norad_id": 35434, "name": "COSMOS 2251 DEB", "group": "cosmos-2251-debris", "lat": -63.137197539771925, "lon": 179.82231712493154, "alt_km": 750.6001419512195, "timestamp": "2025-12-12T09:49:09.128102+00:00", "meta": {"OBJECT_NAME": "COSMOS 2251 DEB", "OBJECT_ID": "1993-036AKC", "EPOCH": "2025-12-11T08:52:23.274048", "MEAN_MOTION": 14.25682257, "ECCENTRICITY": 0.00875072, "INCLINATION": 74.0403, "RA_OF_ASC_NODE": 216.0983, "ARG_OF_PERICENTER": 287.1245, "MEAN_ANOMALY": 72.0334, "EPHEMERIS_TYPE": 0, "CLASSIFICATION_TYPE": "U", "NORAD_CAT_ID": 35434, "ELEMENT_SET_NO": 999, "REV_AT_EPOCH": 86098, "BSTAR": 0.00095825855, "MEAN_MOTION_DOT": 2.34e-05, "MEAN_MOTION_DDOT": 0}, "tle": {"line1": "1 35434U 93036AKC 25345.36971382  .00002340  00000+0  95826-3 0  9999", "line2": "2 35434  74.0403 216.0983 0087507 287.1245  72.0334 14.25682257860986"}}, "geometry": {"type": "Point", "coordinates": [179.82231712493154, -63.137197539771925]}}, {"type": "Feature", "properties": {"norad_id": 35435, "name": "COSMOS 2251 DEB", "group": "cosmos-2251-debris", "lat": 57.82574480780807, "lon": 131.8357277226339, "alt_km": 632.4882323466527, "timestamp": "2025-12-12T09:49:09.128112+00:00", "meta": {"OBJECT_NAME": "COSMOS 2251 DEB", "OBJECT_ID": "1993-036AKD", "EPOCH": "2025-12-11T01:35:23.280288", "MEAN_MOTION": 14.78375379, "ECCENTRICITY": 0.00082091, "INCLINATION": 74.0093, "RA_OF_ASC_NODE": 107.3593, "ARG_OF_PERICENTER": 201.1094, "MEAN_ANOMALY": 276.4559, "EPHEMERIS_TYPE": 0, "CLASSIFICATION_TYPE": "U", "NORAD_CAT_ID": 35435, "ELEMENT_SET_NO": 999, "REV_AT_EPOCH": 87514, "BSTAR": 0.0035391532, "MEAN_MOTION_DOT": 0.00025849, "MEAN_MOTION_DDOT": 0}, "tle": {"line1": "1 35435U 93036AKD 25345.06624167  .00025849  00000+0  35392-2 0  9993", "line2": "2 35435  74.0093 107.3593 0008209 201.1094 276.4559 14.78375379875146"}}, "geometry": {"type": "Point", "coordinates": [131.8357277226339, 57.82574480780807]}}, {"type": "Feature", "properties": {"norad_id": 35439, "name": "COSMOS 2251 DEB", "group": "cosmos-2251-debris", "lat": 73.46484253273458, "lon": -119.53314963431744, "alt_km": 1062.5564921580517, "timestamp": "2025-12-12T09:49:09.128123+00:00", "meta": {"OBJECT_NAME": "COSMOS 2251 DEB", "OBJECT_ID": "1993-036AKH", "EPOCH": "2025-12-11T04:55:48.885888", "MEAN_MOTION": 13.92796753, "ECCENTRICITY": 0.02419274, "INCLINATION": 74.0198, "RA_OF_ASC_NODE": 137.3683, "ARG_OF_PERICENTER": 307.011, "MEAN_ANOMALY": 232.6694, "EPHEMERIS_TYPE": 0, "CLASSIFICATION_TYPE": "U", "NORAD_CAT_ID": 35439, "ELEMENT_SET_NO": 999, "REV_AT_EPOCH": 83939, "BSTAR": 0.0020869419, "MEAN_MOTION_DOT": 3.412e-05, "MEAN_MOTION_DDOT": 0}, "tle": {"line1": "1 35439U 93036AKH 25345.20542692  .00003412  00000+0  20869-2 0  9990", "line2": "2 35439  74.0198 137.3683 0241927 307.0110 232.6694 13.92796753839399"}}, "geometry": {"type": "Point", "coordinates": [-119.53314963431744, 73.46484253273458]}}, {"type": "Feature", "properties": {"norad_id": 35440, "name": "COSMOS 2251 DEB", "group": "cosmos-2251-debris", "lat": 67.65915718898805, "lon": -107.50219505207916, "alt_km": 653.3854771507386, "timestamp": "2025-12-12T09:49:09.128133+00:00", "meta": {"OBJECT_NAME": "COSMOS 2251 DEB", "OBJECT_ID": "1993-036AKJ", "EPOCH": "2025-12-10T08:26:45.842208", "MEAN_MOTION": 14.68793955, "ECCENTRICITY": 0.00692048, "INCLINATION": 74.0146, "RA_OF_ASC_NODE": 212.2531, "ARG_OF_PERICENTER": 353.6751, "MEAN_ANOMALY": 6.3537, "EPHEMERIS_TYPE": 0, "CLASSIFICATION_TYPE": "U", "NORAD_CAT_ID": 35440, "ELEMENT_SET_NO": 999, "REV_AT_EPOCH": 68730, "BSTAR": 0.0006737672, "MEAN_MOTION_DOT": 4.046e-05, "MEAN_MOTION_DDOT": 0}, "tle": {"line1": "1 35440U 93036AKJ 25344.35191947  .00004046  00000+0  67377-3 0  9990", "line2": "2 35440  74.0146 212.2531 0069204 353.6751   6.3537 14.68793955687302"}}, "geometry": {"type": "Point", "coordinates": [-107.50219505207916, 67.65915718898805]}}, {"type": "Feature", "properties": {"norad_id": 35441, "name": "COSMOS 2251 DEB", "group": "cosmos-2251-debris", "lat": 32.768725097323404, "lon": -50.72118494514941, "alt_km": 707.2405344622748, "timestamp": "2025-12-12T09:49:09.128143+00:00", "meta": {"OBJECT_NAME": "COSMOS 2251 DEB", "OBJECT_ID": "1993-036AKK", "EPOCH": "2025-12-11T13:57:45.009216", "MEAN_MOTION": 14.62564221, "ECCENTRICITY": 0.00369307, "INCLINATION": 74.1343, "RA_OF_ASC_NODE": 300.3057, "ARG_OF_PERICENTER": 197.5882, "MEAN_ANOMALY": 162.401, "EPHEMERIS_TYPE": 0, "CLASSIFICATION_TYPE": "U", "NORAD_CAT_ID": 35441, "ELEMENT_SET_NO": 999, "REV_AT_EPOCH": 87413, "BSTAR": 0.0026744253, "MEAN_MOTION_DOT": 0.00013709, "MEAN_MOTION_DDOT": 0}, "tle": {"line1": "1 35441U 93036AKK 25345.58177094  .00013709  00000+0  26744-2 0  9992", "line2": "2 35441  74.1343 300.3057 0036930 197.5882 162.4010 14.62564221874130"}}, "geometry": {"type": "Point", "coordinates": [-50.72118494514941, 32.768725097323404]}}]}